STARLINK-30091          
1 57463U 23107G   25164.25707986  .00001303  00000+0  11147-3 0  9993
2 57463  43.0049   2.9975 0001102 267.8468  92.2248 15.02539194104588
STARLINK-30116          
1 57465U 23107J   25164.52409675  .00001615  00000+0  13458-3 0  9992
2 57465  43.0058   1.5595 0001415 246.8319 113.2374 15.02540591104624
STARLINK-30092          
1 57467U 23107L   25164.84871903  .00000195  00000+0  29507-4 0  9991
2 57467  43.0032 359.6993 0001269 264.6687  95.4010 15.02536792104749
STARLINK-30039          
1 57468U 23107M   25164.24708697  .00000881  00000+0  80295-4 0  9998
2 57468  43.0034   2.9252 0001402 262.6623  97.4060 15.02540793104580
STARLINK-30171          
1 57469U 23107N   25164.83873030  .00000224  00000+0  31683-4 0  9996
2 57469  43.0054 359.6226 0001535 270.5024  89.5642 15.02537174104662
STARLINK-30186          
1 57470U 23107P   25164.57614856  .00003325  00000+0  26112-3 0  9993
2 57470  43.0041   1.0895 0001046 274.5336  85.5387 15.02534104104412
STARLINK-30190          
1 57471U 23107Q   25164.59187244  .00136518  00000+0  54798-2 0  9993
2 57471  42.9998 347.6352 0022829 282.6586  77.1712 15.23500710104797
STARLINK-30204          
1 57472U 23107R   25164.23710198 -.00000860  00000+0 -48596-4 0  9998
2 57472  43.0052   2.8476 0001216 272.9410  87.1293 15.02528696104585
STARLINK-30187          
1 57473U 23107S   25164.56616144  .00000618  00000+0  60861-4 0  9999
2 57473  43.0042   1.0098 0001160 273.0249  87.0461 15.02530741104632
STARLINK-30110          
1 57474U 23107T   25164.82155692  .00070626  00000+0  32147-2 0  9995
2 57474  43.0030 340.8784 0016306 280.0324  79.8685 15.19702331104783
STARLINK-30155          
1 57475U 23107U   25164.55616630  .00000531  00000+0  54396-4 0  9990
2 57475  43.0063   0.9412 0001359 267.2264  92.8422 15.02539787104637
STARLINK-30161          
1 57476U 23107V   25164.55283678  .00000619  00000+0  60892-4 0  9998
2 57476  43.0058   0.9131 0001333 268.1220  91.9470 15.02538249104639
STARLINK-30176          
1 57477U 23107W   25164.55061403  .00001413  00000+0  11964-3 0  9997
2 57477  43.0058   0.8942 0001634 260.5357  99.5301 15.02539540104632
JUPITER 3 (ECHOSTAR 24) 
1 57479U 23108A   25164.53652294 -.00000134  00000+0  00000+0 0  9997
2 57479   0.0212 357.6795 0001318  79.4401 282.8951  1.00269490  6955
FENGYUN 3F              
1 57490U 23111A   25164.85691781  .00000105  00000+0  69904-4 0  9993
2 57490  98.7269 235.8590 0001953 109.0368 251.1020 14.20046652 96595
GALAXY 37 (G-37)        
1 57493U 23112A   25164.55253160  .00000063  00000+0  00000+0 0  9999
2 57493   0.0149  35.9923 0002233  46.8009 251.2341  1.00271159  6844
STARLINK-30154          
1 57495U 23113A   25164.04021207  .00002695  00000+0  21446-3 0  9995
2 57495  43.0048  42.8943 0001183 269.4051  90.6656 15.02541202102930
STARLINK-30145          
1 57496U 23113B   25164.68834174  .00000190  00000+0  29156-4 0  9996
2 57496  43.0046  39.1703 0001290 265.6037  94.4658 15.02539852103082
STARLINK-30226          
1 57497U 23113C   25164.02024092  .00002463  00000+0  19732-3 0  9998
2 57497  43.0035  42.7675 0001157 263.9915  96.0796 15.02540486102992
STARLINK-30203          
1 57498U 23113D   25163.94377192  .00000609  00000+0  60121-4 0  9990
2 57498  43.0044  43.0453 0001231 246.1501 113.9213 15.02535578103101
STARLINK-30169          
1 57499U 23113E   25164.90472301 -.00000130  00000+0  54148-5 0  9999
2 57499  43.0050  25.4950 0001254 262.6986  97.3714 15.02537290103216
STARLINK-30164          
1 57500U 23113F   25164.06673810 -.00000159  00000+0  33054-5 0  9991
2 57500  43.0046  42.2452 0001174 260.1718  99.8992 15.02537494103104
STARLINK-30072          
1 57501U 23113G   25163.99360073  .00001010  00000+0  89782-4 0  9991
2 57501  43.0043  42.5484 0000728 258.2260 101.8501 15.02537804102984
STARLINK-30228          
1 57502U 23113H   25164.87941043  .00002164  00000+0  11108-3 0  9999
2 57502  43.0023  24.4528 0001927 271.5579  88.5049 15.19520293103277
STARLINK-30230          
1 57503U 23113J   25164.00358765  .00000098  00000+0  22294-4 0  9991
2 57503  43.0046  42.6268 0001183 263.8608  96.2099 15.02537562102984
STARLINK-30213          
1 57504U 23113K   25164.38925471  .00000084  00000+0  21283-4 0  9999
2 57504  43.0038  41.2051 0001093 269.5575  90.5142 15.02535513103146
STARLINK-30227          
1 57505U 23113L   25164.89469128 -.00000130  00000+0  54228-5 0  9997
2 57505  43.0048  25.1199 0001168 264.0937  95.9773 15.02541099103434
STARLINK-30212          
1 57506U 23113M   25164.38591481  .00001019  00000+0  90443-4 0  9994
2 57506  43.0050  41.1881 0001191 269.6161  90.4545 15.02546544102986
STARLINK-30219          
1 57507U 23113N   25164.38259202  .00001202  00000+0  10406-3 0  9991
2 57507  43.0056  41.1762 0001148 264.6814  95.3897 15.02541266103142
STARLINK-30074          
1 57508U 23113P   25163.99693107  .00001097  00000+0  96314-4 0  9999
2 57508  43.0049  42.5750 0001193 265.6905  94.3801 15.02526631102882
STARLINK-30082          
1 57509U 23113Q   25164.03688751  .00000352  00000+0  41165-4 0  9992
2 57509  43.0076  42.8794 0001159 273.6924  86.3785 15.02535985103094
STARLINK-30153          
1 57510U 23113R   25164.63185732  .00000259  00000+0  34281-4 0  9998
2 57510  43.0044  39.6155 0001281 265.5980  94.4716 15.02539095103072
STARLINK-30147          
1 57511U 23113S   25164.90775754 -.00000090  00000+0  83906-5 0  9991
2 57511  43.0059  38.2367 0001010 250.1001 109.9733 15.02542079103227
STARLINK-30157          
1 57512U 23113T   25163.98749724  .00001548  00000+0  12960-3 0  9995
2 57512  43.0041  16.8182 0001197 265.1814  94.8892 15.02538902103396
STARLINK-30168          
1 57513U 23113U   25164.91108414  .00000234  00000+0  32391-4 0  9997
2 57513  43.0042  38.2294 0001221 269.7047  90.3656 15.02539855103067
STARLINK-30231          
1 57514U 23113V   25164.09670465  .00000210  00000+0  30643-4 0  9999
2 57514  43.0043  42.4606 0001181 269.2797  90.7910 15.02537980103104
STARLINK-30081          
1 57515U 23113W   25164.01690575  .00000889  00000+0  80879-4 0  9994
2 57515  43.0023  42.7438 0001075 270.1515  89.9204 15.02539762103094
STARLINK-30149          
1 57516U 23113X   25164.67168998  .00001756  00000+0  14501-3 0  9998
2 57516  43.0050  39.0477 0001198 265.2949  94.7757 15.02543484103081
COSMOS 2569 [GLONASS-K2]
1 57517U 23114A   25163.94824810 -.00000004  00000+0  00000+0 0  9992
2 57517  65.0928  85.0926 0011262 297.7236  62.1729  2.13103726 14394
HJ-2F                   
1 57519U 23116A   25164.56456442  .00015779  00000+0  69223-3 0  9997
2 57519  97.3848 171.4645 0002327 175.3055 184.8204 15.22045803102691
STARLINK-30259          
1 57521U 23115A   25164.67205056  .00001602  00000+0  13361-3 0  9996
2 57521  43.0036  26.7986 0001235 262.2468  97.8234 15.02542951102951
STARLINK-30256          
1 57522U 23115B   25164.66872110  .00000656  00000+0  63612-4 0  9990
2 57522  43.0040  26.7731 0001114 261.3056  98.7660 15.02542797102696
STARLINK-30261          
1 57523U 23115C   25164.59891471  .00001043  00000+0  92223-4 0  9995
2 57523  43.0049  27.1054 0000996 258.7189 101.3541 15.02543958102838
STARLINK-30260          
1 57524U 23115D   25164.06377284  .00000473  00000+0  50120-4 0  9995
2 57524  43.0052  29.9912 0001211 265.0800  94.9904 15.02535814101750
STARLINK-30253          
1 57525U 23115E   25163.98730259  .00000175  00000+0  28002-4 0  9994
2 57525  43.0037  30.2627 0001042 269.6479  90.4243 15.02536573101745
STARLINK-30257          
1 57526U 23115F   25164.05711313 -.00002621  00000+0 -17903-3 0  9991
2 57526  43.0033  29.9525 0000742 270.7853  89.2904 15.02533381101754
STARLINK-30250          
1 57527U 23115G   25164.31636104  .00001120  00000+0  97961-4 0  9999
2 57527  43.0047  28.4278 0001093 272.1103  87.9614 15.02539548102691
STARLINK-30269          
1 57528U 23115H   25164.30304117  .00000485  00000+0  50971-4 0  9998
2 57528  43.0049  28.3569 0001182 268.5042  91.5665 15.02538400101799
STARLINK-30266          
1 57529U 23115J   25163.96066700  .00006088  00000+0  46549-3 0  9993
2 57529  43.0053  30.0718 0001210 277.4266  82.6439 15.02525033101743
STARLINK-30270          
1 57530U 23115K   25164.89801524 -.00000055  00000+0  10995-4 0  9995
2 57530  43.0054  25.0749 0000982 268.1824  91.8906 15.02539953102991
STARLINK-30268          
1 57531U 23115L   25164.31303071  .00000830  00000+0  76525-4 0  9998
2 57531  43.0047  28.4228 0001215 265.1349  94.9354 15.02539376101799
STARLINK-30251          
1 57532U 23115M   25164.90578696 -.00000480  00000+0 -20502-4 0  9998
2 57532  43.0031  25.1207 0001139 265.6990  94.3722 15.02534282102993
STARLINK-30254          
1 57533U 23115N   25164.32117332  .00001412  00000+0  60843-4 0  9997
2 57533  43.0009 184.4089 0001632 256.1276 103.9394 15.27571159104160
STARLINK-30264          
1 57534U 23115P   25164.71438360  .00003016  00000+0  12500-3 0  9996
2 57534  43.0031 286.7761 0001069 270.6508  89.4220 15.25931174104231
STARLINK-30262          
1 57535U 23115Q   25164.58334491  .00449361  00000+0  14219-2 0  9997
2 57535  42.9938 229.6943 0009249  40.3817 176.1548 15.89302369104704
2023-117C               
1 57582U 23117C   25164.85478947  .00012302  00000+0  47917-3 0  9999
2 57582  97.4447 239.7774 0010562 107.2374 253.0021 15.26071292102169
2023-117F               
1 57585U 23117F   25164.85329857  .00020608  00000+0  69552-3 0  9994
2 57585  97.4494 241.6177 0010237 104.8707 255.3668 15.30671646102262
STARLINK-30166          
1 57602U 23119A   25164.20169931  .00000396  00000+0  44381-4 0  9996
2 57602  43.0038 106.2994 0000670 286.9470  73.1299 15.02537608102483
STARLINK-30223          
1 57603U 23119B   25164.51410806  .00000226  00000+0  31799-4 0  9992
2 57603  43.0034 104.3345 0000947 270.4978  89.5755 15.02537314102580
